{
  "type": "FeatureCollection",
  "features": [
    {
      "type": "Feature",
      "properties": {
        "norad_id": 66878,
        "name": "STARLINK-35866",
        "group": "last-30-days",
        "lat": -52.85573222669762,
        "lon": -52.24759440686569,
        "alt_km": 335.7213842250412,
        "timestamp": "2025-12-18T07:01:53.342166+00:00",
        "meta_object_name": "STARLINK-35866",
        "meta_object_id": "2025-283A",
        "meta_epoch": "2025-12-17T22:00:01.999584",
        "meta_mean_motion": 15.81178268,
        "meta_eccentricity": 9.546e-05,
        "meta_inclination": 53.1554,
        "meta_ra_of_asc_node": 47.7874,
        "meta_arg_of_pericenter": 72.1635,
        "meta_mean_anomaly": 210.4959,
        "meta_ephemeris_type": 0,
        "meta_classification_type": "U",
        "meta_norad_cat_id": 66878,
        "meta_element_set_no": 999,
        "meta_rev_at_epoch": 326,
        "meta_bstar": -0.0075134898,
        "meta_mean_motion_dot": -0.01320647,
        "meta_mean_motion_ddot": 0,
        "tle_line1": "1 66878U 25283A   25351.91668981 -.01320647  00000+0 -75135-2 0  9996",
        "tle_line2": "2 66878  53.1554  47.7874 0000954  72.1635 210.4959 15.81178268  3267"
      },
      "geometry": {
        "type": "Point",
        "coordinates": [
          -52.24759440686569,
          -52.85573222669762
        ]
      }
    },
    {
      "type": "Feature",
      "properties": {
        "norad_id": 66879,
        "name": "STARLINK-35749",
        "group": "last-30-days",
        "lat": -53.13509757272331,
        "lon": -44.18591102326742,
        "alt_km": 336.0324084193717,
        "timestamp": "2025-12-18T07:01:53.342176+00:00",
        "meta_object_name": "STARLINK-35749",
        "meta_object_id": "2025-283B",
        "meta_epoch": "2025-12-17T22:00:01.999584",
        "meta_mean_motion": 15.81089372,
        "meta_eccentricity": 9.999e-05,
        "meta_inclination": 53.1553,
        "meta_ra_of_asc_node": 47.7767,
        "meta_arg_of_pericenter": 70.2616,
        "meta_mean_anomaly": 217.4042,
        "meta_ephemeris_type": 0,
        "meta_classification_type": "U",
        "meta_norad_cat_id": 66879,
        "meta_element_set_no": 999,
        "meta_rev_at_epoch": 326,
        "meta_bstar": -0.0076559988,
        "meta_mean_motion_dot": -0.01363188,
        "meta_mean_motion_ddot": 0,
        "tle_line1": "1 66879U 25283B   25351.91668981 -.01363188  00000+0 -76560-2 0  9997",
        "tle_line2": "2 66879  53.1553  47.7767 0000999  70.2616 217.4042 15.81089372  3262"
      },
      "geometry": {
        "type": "Point",
        "coordinates": [
          -44.18591102326742,
          -53.13509757272331
        ]
      }
    },
    {
      "type": "Feature",
      "properties": {
        "norad_id": 66880,
        "name": "STARLINK-35844",
        "group": "last-30-days",
        "lat": -53.05929621199087,
        "lon": -48.355376844244745,
        "alt_km": 335.8309480830849,
        "timestamp": "2025-12-18T07:01:53.342189+00:00",
        "meta_object_name": "STARLINK-35844",
        "meta_object_id": "2025-283C",
        "meta_epoch": "2025-12-17T22:00:01.999584",
        "meta_mean_motion": 15.81142603,
        "meta_eccentricity": 9.417e-05,
        "meta_inclination": 53.1553,
        "meta_ra_of_asc_node": 47.7824,
        "meta_arg_of_pericenter": 71.9805,
        "meta_mean_anomaly": 213.0932,
        "meta_ephemeris_type": 0,
        "meta_classification_type": "U",
        "meta_norad_cat_id": 66880,
        "meta_element_set_no": 999,
        "meta_rev_at_epoch": 326,
        "meta_bstar": -0.0075737813,
        "meta_mean_motion_dot": -0.01327967,
        "meta_mean_motion_ddot": 0,
        "tle_line1": "1 66880U 25283C   25351.91668981 -.01327967  00000+0 -75738-2 0  9990",
        "tle_line2": "2 66880  53.1553  47.7824 0000941  71.9805 213.0932 15.81142603  3260"
      },
      "geometry": {
        "type": "Point",
        "coordinates": [
          -48.355376844244745,
          -53.05929621199087
        ]
      }
    },
    {
      "type": "Feature",
      "properties": {
        "norad_id": 66881,
        "name": "STARLINK-35860",
        "group": "last-30-days",
        "lat": -53.083316663963444,
        "lon": -40.61561212980357,
        "alt_km": 336.0753569409153,
        "timestamp": "2025-12-18T07:01:53.342199+00:00",
        "meta_object_name": "STARLINK-35860",
        "meta_object_id": "2025-283D",
        "meta_epoch": "2025-12-17T22:00:01.999584",
        "meta_mean_motion": 15.81071088,
        "meta_eccentricity": 9.551e-05,
        "meta_inclination": 53.1548,
        "meta_ra_of_asc_node": 47.7717,
        "meta_arg_of_pericenter": 80.136,
        "meta_mean_anomaly": 209.7026,
        "meta_ephemeris_type": 0,
        "meta_classification_type": "U",
        "meta_norad_cat_id": 66881,
        "meta_element_set_no": 999,
        "meta_rev_at_epoch": 326,
        "meta_bstar": -0.0076523622,
        "meta_mean_motion_dot": -0.01336097,
        "meta_mean_motion_ddot": 0,
        "tle_line1": "1 66881U 25283D   25351.91668981 -.01336097  00000+0 -76524-2 0  9999",
        "tle_line2": "2 66881  53.1548  47.7717 0000955  80.1360 209.7026 15.81071088  3263"
      },
      "geometry": {
        "type": "Point",
        "coordinates": [
          -40.61561212980357,
          -53.083316663963444
        ]
      }
    },
    {
      "type": "Feature",
      "properties": {
        "norad_id": 66882,
        "name": "STARLINK-35912",
        "group": "last-30-days",
        "lat": -52.90873859937525,
        "lon": -36.780608463463295,
        "alt_km": 336.2567843531815,
        "timestamp": "2025-12-18T07:01:53.342212+00:00",
        "meta_object_name": "STARLINK-35912",
        "meta_object_id": "2025-283E",
        "meta_epoch": "2025-12-17T22:00:01.999584",
        "meta_mean_motion": 15.81039311,
        "meta_eccentricity": 0.00010465,
        "meta_inclination": 53.1553,
        "meta_ra_of_asc_node": 47.7674,
        "meta_arg_of_pericenter": 80.2464,
        "meta_mean_anomaly": 211.9637,
        "meta_ephemeris_type": 0,
        "meta_classification_type": "U",
        "meta_norad_cat_id": 66882,
        "meta_element_set_no": 999,
        "meta_rev_at_epoch": 326,
        "meta_bstar": -0.0077326877,
        "meta_mean_motion_dot": -0.01372531,
        "meta_mean_motion_ddot": 0,
        "tle_line1": "1 66882U 25283E   25351.91668981 -.01372531  00000+0 -77327-2 0  9995",
        "tle_line2": "2 66882  53.1553  47.7674 0001046  80.2464 211.9637 15.81039311  3266"
      },
      "geometry": {
        "type": "Point",
        "coordinates": [
          -36.780608463463295,
          -52.90873859937525
        ]
      }
    },
    {
      "type": "Feature",
      "properties": {
        "norad_id": 66883,
        "name": "STARLINK-35947",
        "group": "last-30-days",
        "lat": -52.59604944882198,
        "lon": -32.83048049535524,
        "alt_km": 336.2762957524901,
        "timestamp": "2025-12-18T07:01:53.342223+00:00",
        "meta_object_name": "STARLINK-35947",
        "meta_object_id": "2025-283F",
        "meta_epoch": "2025-12-17T22:00:01.999584",
        "meta_mean_motion": 15.80997534,
        "meta_eccentricity": 8.756e-05,
        "meta_inclination": 53.1553,
        "meta_ra_of_asc_node": 47.7623,
        "meta_arg_of_pericenter": 84.9948,
        "meta_mean_anomaly": 209.6973,
        "meta_ephemeris_type": 0,
        "meta_classification_type": "U",
        "meta_norad_cat_id": 66883,
        "meta_element_set_no": 999,
        "meta_rev_at_epoch": 331,
        "meta_bstar": -0.0078195988,
        "meta_mean_motion_dot": -0.01383774,
        "meta_mean_motion_ddot": 0,
        "tle_line1": "1 66883U 25283F   25351.91668981 -.01383774  00000+0 -78196-2 0  9992",
        "tle_line2": "2 66883  53.1553  47.7623 0000875  84.9948 209.6973 15.80997534  3310"
      },
      "geometry": {
        "type": "Point",
        "coordinates": [
          -32.83048049535524,
          -52.59604944882198
        ]
      }
    },
    {
      "type": "Feature",
      "properties": {
        "norad_id": 66884,
        "name": "STARLINK-36057",
        "group": "last-30-days",
        "lat": -51.60493766650836,
        "lon": -25.26673017309169,
        "alt_km": 336.46689553495617,
        "timestamp": "2025-12-18T07:01:53.342232+00:00",
        "meta_object_name": "STARLINK-36057",
        "meta_object_id": "2025-283G",
        "meta_epoch": "2025-12-17T22:00:01.999584",
        "meta_mean_motion": 15.80911819,
        "meta_eccentricity": 7.955e-05,
        "meta_inclination": 53.1549,
        "meta_ra_of_asc_node": 47.7516,
        "meta_arg_of_pericenter": 86.6644,
        "meta_mean_anomaly": 212.9161,
        "meta_ephemeris_type": 0,
        "meta_classification_type": "U",
        "meta_norad_cat_id": 66884,
        "meta_element_set_no": 999,
        "meta_rev_at_epoch": 326,
        "meta_bstar": -0.0079333301,
        "meta_mean_motion_dot": -0.01396657,
        "meta_mean_motion_ddot": 0,
        "tle_line1": "1 66884U 25283G   25351.91668981 -.01396657  00000+0 -79333-2 0  9991",
        "tle_line2": "2 66884  53.1549  47.7516 0000795  86.6644 212.9161 15.80911819  3262"
      },
      "geometry": {
        "type": "Point",
        "coordinates": [
          -25.26673017309169,
          -51.60493766650836
        ]
      }
    }
  ]
}